     2.100          NAVIGATION                              RINEX VERSION / TYPE
fic2rin                                 01/25/2018 00:30:30 PGM / RUN BY / DATE
                                                            END OF HEADER
 1 18  1 24 18  0  0.0 -.251680612564D-04 -.193267624127D-11  .000000000000D+00
     .140000000000D+02 -.575000000000D+01  .445768568050D-08  .159120026260D+01
    -.327825546265D-06  .727824086789D-02  .645034015179D-05  .515367652321D+04
     .324000000000D+06 -.126659870148D-06 -.493577510524D+00  .132247805595D-06
     .970132822269D+00  .259281250000D+03  .617522473833D+00 -.821105630917D-08
     .264296723305D-09  .100000000000D+01  .198500000000D+04  .000000000000D+00
     .240000000000D+01  .000000000000D+00  .558793544769D-08  .140000000000D+02
     .316806000000D+06  .400000000000D+01
 2 18  1 24 18  0  0.0  .219355337322D-03 -.103455022327D-10  .000000000000D+00
     .930000000000D+02 -.743750000000D+01  .481698636110D-08  .198960639107D+01
    -.575557351112D-06  .176867300179D-01  .644102692604D-05  .515366629791D+04
     .324000000000D+06  .540167093277D-07 -.552093136507D+00 -.424683094025D-06
     .949129003741D+00  .247093750000D+03 -.190665284877D+01 -.820248452355D-08
     .385016037463D-09  .100000000000D+01  .198500000000D+04  .000000000000D+00
     .240000000000D+01  .000000000000D+00 -.204890966415D-07  .930000000000D+02
     .316806000000D+06  .400000000000D+01
 3 18  1 24 18  0  0.0 -.399723649025D-05  .704858393874D-11  .000000000000D+00
     .580000000000D+02 -.479062500000D+02  .474734060293D-08  .606596659917D+00
    -.264309346676D-05  .117048621178D-02  .787898898125D-05  .515357161522D+04
     .324000000000D+06  .149011611938D-07  .548798446035D+00 -.186264514923D-07
     .960769518970D+00  .230750000000D+03  .540236830621D+00 -.818534095231D-08
    -.102504269714D-09  .100000000000D+01  .198500000000D+04  .000000000000D+00
     .240000000000D+01  .000000000000D+00  .232830643654D-08  .580000000000D+02
     .316806000000D+06  .400000000000D+01
 4 18  1 24 18  0  0.0  .341115519404D-04  .216004991671D-11  .000000000000D+00
     .450000000000D+02 -.230312500000D+02  .542701177111D-08 -.127714410926D+01
    -.118836760521D-05  .943995639682D-02  .580027699471D-05  .515366953468D+04
     .324000000000D+06  .286847352982D-06 -.256595864165D+01  .109896063805D-06
     .980374461583D+00  .277875000000D+03  .891849934135D+00 -.804604943597D-08
    -.340371320689D-09  .100000000000D+01  .198500000000D+04  .000000000000D+00
     .340000000000D+01  .630000000000D+02 -.195577740669D-07  .450000000000D+02
     .316806000000D+06  .400000000000D+01
 5 18  1 24 18  0  0.0 -.160913914442D-04  .102318153949D-11  .000000000000D+00
     .890000000000D+02 -.445312500000D+02  .502878089748D-08 -.172966884692D+01
    -.246800482273D-05  .527255493216D-02  .761821866035D-05  .515362845802D+04
     .324000000000D+06  .614672899246D-07  .528662276906D+00 -.186264514923D-08
     .947690367176D+00  .220437500000D+03  .629997482884D+00 -.828463080241D-08
    -.578595529398D-10  .100000000000D+01  .198500000000D+04  .000000000000D+00
     .240000000000D+01  .000000000000D+00 -.107102096081D-07  .890000000000D+02
     .316806000000D+06  .400000000000D+01
 6 18  1 24 18  0  0.0  .414872542024D-03  .000000000000D+00  .000000000000D+00
     .500000000000D+01 -.634375000000D+01  .439875465436D-08  .185258292989D+01
    -.268220901489D-06  .102158891968D-02  .638514757156D-05  .515355829048D+04
     .324000000000D+06  .670552253723D-07 -.501910477695D+00  .149011611938D-07
     .969866973481D+00  .260375000000D+03 -.125891420285D+01 -.809926593836D-08
     .333585323739D-09  .100000000000D+01  .198500000000D+04  .000000000000D+00
     .240000000000D+01  .000000000000D+00  .465661287308D-08  .500000000000D+01
     .316806000000D+06  .400000000000D+01
 7 18  1 24 18  0  0.0  .246854033321D-03 -.545696821064D-11  .000000000000D+00
     .570000000000D+02  .597500000000D+02  .482770109313D-08  .913172278205D+00
     .333227217197D-05  .111367499921D-01  .602565705776D-05  .515369776535D+04
     .324000000000D+06 -.316649675369D-07  .266173615602D+01  .141561031342D-06
     .959861690526D+00  .263125000000D+03 -.254596974595D+01 -.845285209522D-08
    -.133219834855D-09  .100000000000D+01  .198500000000D+04  .000000000000D+00
     .240000000000D+01  .000000000000D+00 -.111758708954D-07  .570000000000D+02
     .316806000000D+06  .400000000000D+01
 8 18  1 24 18  0  0.0 -.887834466994D-04 -.136424205266D-11  .000000000000D+00
     .550000000000D+02 -.110625000000D+02  .414731560948D-08 -.207144158077D+01
    -.501051545143D-06  .324633950368D-02  .898912549019D-05  .515375641251D+04
     .324000000000D+06 -.149011611938D-07 -.155808753319D+01  .391155481339D-07
     .968314034738D+00  .214031250000D+03 -.581748547225D+00 -.796461747257D-08
     .126433837905D-09  .100000000000D+01  .198500000000D+04  .000000000000D+00
     .240000000000D+01  .000000000000D+00  .558793544769D-08  .550000000000D+02
     .316806000000D+06  .400000000000D+01
 9 18  1 24 18  0  0.0  .495789106935D-03  .306954461848D-11  .000000000000D+00
     .560000000000D+02  .250625000000D+02  .477412743300D-08 -.226548680474D+01
     .134482979774D-05  .117518671323D-02  .101700425148D-04  .515369688988D+04
     .324000000000D+06  .111758708954D-07  .158345827337D+01  .167638063431D-07
     .952563780322D+00  .182000000000D+03  .174756091434D+01 -.807319342377D-08
     .139291516336D-10  .100000000000D+01  .198500000000D+04  .000000000000D+00
     .240000000000D+01  .000000000000D+00  .139698386192D-08  .560000000000D+02
     .316806000000D+06  .400000000000D+01
10 18  1 24 18  0  0.0  .150738749653D-03  .534328137292D-11  .000000000000D+00
     .590000000000D+02 -.452187500000D+02  .477341311753D-08 -.427693407559D+00
    -.233389437199D-05  .320972432382D-02  .743567943573D-05  .515366331482D+04
     .324000000000D+06  .745058059692D-07  .545266122077D+00  .298023223877D-07
     .960890215563D+00  .235468750000D+03 -.285258208056D+01 -.820784188956D-08
    -.119290683221D-09  .100000000000D+01  .198500000000D+04  .000000000000D+00
     .240000000000D+01  .000000000000D+00  .186264514923D-08  .590000000000D+02
     .316806000000D+06  .400000000000D+01
11 18  1 24 18  0  0.0 -.734803266823D-03 -.909494701773D-12  .000000000000D+00
     .700000000000D+01 -.500000000000D+00  .593417575367D-08  .895006898184D+00
    -.182539224625D-06  .167649759678D-01  .700540840626D-05  .515375722694D+04
     .324000000000D+06 -.230967998505D-06 -.912355735850D+00 -.268220901489D-06
     .903838598997D+00  .217250000000D+03  .173529185929D+01 -.910073622505D-08
     .300369654459D-09  .100000000000D+01  .198500000000D+04  .000000000000D+00
     .240000000000D+01  .000000000000D+00 -.121071934700D-07  .700000000000D+01
     .316806000000D+06  .400000000000D+01
12 18  1 24 18  0  0.0  .353857874870D-03 -.193267624127D-11  .000000000000D+00
     .730000000000D+02 -.215625000000D+02  .404695428618D-08  .331350706498D+00
    -.113435089588D-05  .684011564590D-02  .643171370029D-05  .515365606689D+04
     .324000000000D+06 -.577419996262D-07 -.253209973918D+01  .145286321640D-06
     .987814249971D+00  .269281250000D+03  .913073175746D+00 -.806962184643D-08
    -.365729519817D-09  .100000000000D+01  .198500000000D+04  .000000000000D+00
     .240000000000D+01  .000000000000D+00 -.125728547573D-07  .730000000000D+02
     .316806000000D+06  .400000000000D+01
13 18  1 24 18  0  0.0 -.954475253820D-04 -.113686837722D-12  .000000000000D+00
     .111000000000D+03  .506250000000D+02  .430732227440D-08  .231081035336D+01
     .251270830631D-05  .370633730199D-02  .109057873487D-04  .515366366959D+04
     .324000000000D+06  .428408384323D-07  .171335962613D+01 -.242143869400D-07
     .968401799582D+00  .172562500000D+03  .163612968938D+01 -.783246911092D-08
     .464305054455D-11  .100000000000D+01  .198500000000D+04  .000000000000D+00
     .340000000000D+01  .000000000000D+00 -.111758708954D-07  .111000000000D+03
     .316806000000D+06  .400000000000D+01
14 18  1 24 18  0  0.0 -.929087400436D-04 -.568434188608D-12  .000000000000D+00
     .500000000000D+01  .275000000000D+02  .445411410316D-08 -.283575632534D+01
     .147148966789D-05  .928686361294D-02  .108182430267D-04  .515373489952D+04
     .324000000000D+06  .141561031342D-06  .167227104542D+01 -.651925802231D-07
     .960940844232D+00  .168218750000D+03 -.195722872387D+01 -.779853912617D-08
     .257153568621D-10  .100000000000D+01  .198500000000D+04  .000000000000D+00
     .240000000000D+01  .000000000000D+00 -.977888703346D-08  .500000000000D+01
     .316806000000D+06  .400000000000D+01
15 18  1 24 18  0  0.0 -.357273500413D-03  .113686837722D-12  .000000000000D+00
     .620000000000D+02  .205000000000D+02  .523378943691D-08  .292170801876D+01
     .966712832451D-06  .101372952340D-01  .112541019917D-04  .515368439674D+04
     .324000000000D+06 -.614672899246D-07  .151577284280D+01 -.141561031342D-06
     .928143607741D+00  .144218750000D+03  .663551289403D+00 -.815283959849D-08
    -.760745973838D-10  .100000000000D+01  .198500000000D+04  .000000000000D+00
     .240000000000D+01  .000000000000D+00 -.107102096081D-07  .620000000000D+02
     .316806000000D+06  .400000000000D+01
16 18  1 24 18  0  0.0  .335266813636D-04 -.682121026330D-12  .000000000000D+00
     .580000000000D+02 -.257500000000D+02  .391623455546D-08 -.158845312920D+01
    -.140257179737D-05  .976144080050D-02  .599399209023D-05  .515357155800D+04
     .324000000000D+06  .782310962677D-07 -.251321321369D+01 -.189989805222D-06
     .988251779511D+00  .278062500000D+03  .458101337485D+00 -.783711216146D-08
    -.191793703263D-09  .100000000000D+01  .198500000000D+04  .000000000000D+00
     .240000000000D+01  .000000000000D+00 -.107102096081D-07  .580000000000D+02
     .316806000000D+06  .400000000000D+01
